NORAD_CAT_ID,OBJECT_NAME,OBJECT_TYPE,EPOCH,MEAN_MOTION,ECCENTRICITY,INCLINATION,RA_OF_ASC_NODE,ARG_OF_PERICENTER,MEAN_ANOMALY,BSTAR,MEAN_MOTION_DOT,MEAN_MOTION_DDOT,TLE_LINE0,TLE_LINE1,TLE_LINE2,SEMIMAJOR_AXIS,PERIOD,APOGEE,PERIGEE,DECAYED
55756.0,STARLINK-5614,PAYLOAD,2023-05-15 13:51:04,14.98326719,0.0002925,69.999,319.029,270.2611,89.8213,-3.2279e-05,-4.78e-06,0.0,0 STARLINK-5614,1 55756U 23028R   23135.57713594 -.00000478  00000-0 -32279-4 0  9996,2 55756  69.9990 319.0290 0002925 270.2611  89.8213 14.98326719 11893,6950.203,96.107,574.101,570.035,0.0
55756.0,STARLINK-5614,PAYLOAD,2023-05-15 18:39:28,14.98328203,0.0002762,69.9989,318.5235,266.9478,93.1365,-1.9061e-05,-3.2e-06,0.0,0 STARLINK-5614,1 55756U 23028R   23135.77741494 -.00000320  00000-0 -19061-4 0  9998,2 55756  69.9989 318.5235 0002762 266.9478  93.1365 14.98328203 11926,6950.198,96.107,573.983,570.144,0.0
55756.0,STARLINK-5614,PAYLOAD,2023-05-16 12:16:57,14.98325726,0.0002968,69.999,316.6719,269.9411,90.1408,2.5515e-05,2.11e-06,0.0,0 STARLINK-5614,1 55756U 23028R   23136.51177509  .00000211  00000-0  25515-4 0  9999,2 55756  69.9990 316.6719 0002968 269.9411  90.1408 14.98325726 12037,6950.206,96.107,574.134,570.008,0.0
55756.0,STARLINK-5614,PAYLOAD,2023-05-16 18:41:29,14.98331019,0.0002756,69.9992,315.9985,266.9903,93.094,-8.8067e-06,-1.98e-06,0.0,0 STARLINK-5614,1 55756U 23028R   23136.77881310 -.00000198  00000-0 -88067-5 0  9997,2 55756  69.9992 315.9985 0002756 266.9903  93.0940 14.98331019 12073,6950.19,96.107,573.97,570.139,0.0
55756.0,STARLINK-5614,PAYLOAD,2023-05-16 21:53:45,14.98315257,0.000287,69.9991,315.6618,270.5472,89.5358,0.00027518,3.191e-05,0.0,0 STARLINK-5614,1 55756U 23028R   23136.91233656  .00003191  00000-0  27518-3 0  9993,2 55756  69.9991 315.6618 0002870 270.5472  89.5358 14.98315257 12092,6950.238,96.108,574.098,570.109,0.0
55756.0,STARLINK-5614,PAYLOAD,2023-05-17 18:43:30,14.98330479,0.0002969,69.9994,313.4734,271.0024,89.0794,1.8797e-05,1.31e-06,0.0,0 STARLINK-5614,1 55756U 23028R   23137.78021270  .00000131  00000-0  18797-4 0  9997,2 55756  69.9994 313.4734 0002969 271.0024  89.0794 14.98330479 12225,6950.191,96.107,574.12,569.993,0.0
55756.0,STARLINK-5614,PAYLOAD,2023-05-17 20:19:38,14.98331278,0.0002966,69.9995,313.3051,271.0406,89.0413,2.7073e-05,2.3e-06,0.0,0 STARLINK-5614,1 55756U 23028R   23137.84697189  .00000230  00000-0  27073-4 0  9999,2 55756  69.9995 313.3051 0002966 271.0406  89.0413 14.98331278 12235,6950.189,96.107,574.115,569.993,0.0
55756.0,STARLINK-5614,PAYLOAD,2023-05-18 12:20:59,14.98329056,0.000296,69.9996,311.622,271.0928,88.9892,2.54e-05,2.1e-06,0.0,0 STARLINK-5614,1 55756U 23028R   23138.51457290  .00000210  00000-0  25400-4 0  9991,2 55756  69.9996 311.6220 0002960 271.0928  88.9892 14.98329056 12339,6950.196,96.107,574.118,570.004,0.0
55756.0,STARLINK-5614,PAYLOAD,2023-05-18 21:57:47,14.98331508,0.0002931,69.9996,310.612,270.8322,89.2501,1.133e-05,4.2e-07,0.0,0 STARLINK-5614,1 55756U 23028R   23138.91513138  .00000042  00000-0  11330-4 0  9999,2 55756  69.9996 310.6120 0002931 270.8322  89.2501 14.98331508 12392,6950.188,96.107,574.09,570.016,0.0
55756.0,STARLINK-5614,PAYLOAD,2023-05-19 20:23:40,14.98331218,0.0002922,69.9996,308.2555,268.759,91.3234,-6.5161e-06,-1.71e-06,0.0,0 STARLINK-5614,1 55756U 23028R   23139.84977096 -.00000171  00000-0 -65161-5 0  9996,2 55756  69.9996 308.2555 0002922 268.7590  91.3234 14.98331218 12531,6950.189,96.107,574.085,570.023,0.0
55756.0,STARLINK-5614,PAYLOAD,2023-05-20 04:24:20,14.98330157,0.0002972,69.9998,307.4144,271.8223,88.2595,-2.4778e-06,-1.23e-06,0.0,0 STARLINK-5614,1 55756U 23028R   23140.18357133 -.00000123  00000-0 -24778-5 0  9995,2 55756  69.9998 307.4144 0002972 271.8223  88.2595 14.98330157 12582,6950.192,96.107,574.123,569.992,0.0
55756.0,STARLINK-5614,PAYLOAD,2023-05-20 20:25:40,14.98335595,0.0002952,69.9997,305.7313,271.6686,88.4135,4.4794e-05,4.42e-06,0.0,0 STARLINK-5614,1 55756U 23028R   23140.85116548  .00000442  00000-0  44794-4 0  9993,2 55756  69.9997 305.7313 0002952 271.6686  88.4135 14.98335595 12683,6950.176,96.107,574.092,569.989,0.0
55756.0,STARLINK-5614,PAYLOAD,2023-05-21 10:50:54,14.98326104,0.0002887,70.0007,304.2164,272.4762,87.6066,-6.1193e-05,-8.23e-06,0.0,0 STARLINK-5614,1 55756U 23028R   23141.45201519 -.00000823  00000-0 -61193-4 0  9990,2 55756  70.0007 304.2164 0002887 272.4762  87.6066 14.98326104 12777,6950.205,96.107,574.076,570.063,0.0
55756.0,STARLINK-5614,PAYLOAD,2023-05-21 20:27:42,14.98323643,0.0003014,69.9995,303.2058,271.2894,88.7919,-8.0537e-05,-1.054e-05,0.0,0 STARLINK-5614,1 55756U 23028R   23141.85257819 -.00001054  00000-0 -80537-4 0  9998,2 55756  69.9995 303.2058 0003014 271.2894  88.7919 14.98323643 12838,6950.213,96.107,574.172,569.983,0.0
55756.0,STARLINK-5614,PAYLOAD,2023-05-22 09:16:46,14.98332835,0.0003085,69.9995,301.8588,271.0523,89.0282,4.5709e-05,4.52e-06,0.0,0 STARLINK-5614,1 55756U 23028R   23142.38664939  .00000452  00000-0  45709-4 0  9993,2 55756  69.9995 301.8588 0003085 271.0523  89.0282 14.98332835 12914,6950.184,96.107,574.193,569.905,0.0
55756.0,STARLINK-5614,PAYLOAD,2023-05-22 10:52:54,14.98333792,0.000308,69.9993,301.6901,270.9262,89.1544,3.6516e-05,3.43e-06,0.0,0 STARLINK-5614,1 55756U 23028R   23142.45340894  .00000343  00000-0  36516-4 0  9997,2 55756  69.9993 301.6901 0003080 270.9262  89.1544 14.98333792 12928,6950.181,96.107,574.187,569.906,0.0
55756.0,STARLINK-5614,PAYLOAD,2023-05-22 20:29:42,14.98339207,0.0003159,69.9992,300.6801,269.7017,90.378,3.749e-05,3.54e-06,0.0,0 STARLINK-5614,1 55756U 23028R   23142.85396406  .00000354  00000-0  37490-4 0  9995,2 55756  69.9992 300.6801 0003159 269.7017  90.3780 14.98339207 12985,6950.164,96.106,574.225,569.834,0.0
55756.0,STARLINK-5614,PAYLOAD,2023-05-23 12:31:03,14.98323102,0.0003109,69.9992,298.9968,269.0482,91.032,5.4688e-05,5.59e-06,0.0,0 STARLINK-5614,1 55756U 23028R   23143.52157359  .00000559  00000-0  54688-4 0  9997,2 55756  69.9992 298.9968 0003109 269.0482  91.0320 14.98323102 13089,6950.214,96.107,574.24,569.918,0.0
55756.0,STARLINK-5614,PAYLOAD,2023-05-23 20:31:44,14.98325992,0.0003129,69.9994,298.1551,268.9113,91.1688,6.3607e-05,6.66e-06,0.0,0 STARLINK-5614,1 55756U 23028R   23143.85537236  .00000666  00000-0  63607-4 0  9999,2 55756  69.9994 298.1551 0003129 268.9113  91.1688 14.98325992 13135,6950.205,96.107,574.245,569.896,0.0
55756.0,STARLINK-5614,PAYLOAD,2023-05-24 09:20:48,14.98333797,0.0003094,69.9996,296.8086,268.8416,91.2388,-3.9214e-05,-5.61e-06,0.0,0 STARLINK-5614,1 55756U 23028R   23144.38945066 -.00000561  00000-0 -39214-4 0  9995,2 55756  69.9996 296.8086 0003094 268.8416  91.2388 14.98333797 13210,6950.181,96.107,574.197,569.896,0.0
55756.0,STARLINK-5614,PAYLOAD,2023-05-24 15:45:20,14.98331498,0.0003089,69.9997,296.1353,268.4534,91.6271,2.4986e-05,2.05e-06,0.0,0 STARLINK-5614,1 55756U 23028R   23144.65648988  .00000205  00000-0  24986-4 0  9991,2 55756  69.9997 296.1353 0003089 268.4534  91.6271 14.98331498 13257,6950.188,96.107,574.2,569.906,0.0
55756.0,STARLINK-5614,PAYLOAD,2023-05-25 18:59:37,14.98328154,0.000308,70.0,293.274,266.9706,93.1101,2.696e-06,-6.1e-07,0.0,0 STARLINK-5614,1 55756U 23028R   23145.79141162 -.00000061  00000-0  26960-5 0  9995,2 55756  70.0000 293.2740 0003080 266.9706  93.1101 14.98328154 13421,6950.199,96.107,574.204,569.923,0.0
55756.0,STARLINK-5614,PAYLOAD,2023-05-26 14:13:14,14.98331408,0.0003064,70.0001,291.2546,266.6304,93.4505,-3.674e-06,-1.37e-06,0.0,0 STARLINK-5614,1 55756U 23028R   23146.59252961 -.00000137  00000-0 -36740-5 0  9996,2 55756  70.0001 291.2546 0003064 266.6304  93.4505 14.98331408 13547,6950.189,96.107,574.183,569.924,0.0
55756.0,STARLINK-5614,PAYLOAD,2023-05-26 19:01:38,14.9833202,0.0003038,70.0002,290.7497,266.3582,93.723,1.2478e-05,5.6e-07,0.0,0 STARLINK-5614,1 55756U 23028R   23146.79280854  .00000056  00000-0  12478-4 0  9999,2 55756  70.0002 290.7497 0003038 266.3582  93.7230 14.98332020 13575,6950.187,96.107,574.163,569.94,0.0
55756.0,STARLINK-5614,PAYLOAD,2023-05-27 19:03:39,14.98329391,0.000325,69.9997,288.2236,268.4277,91.651,9.8101e-06,2.4e-07,0.0,0 STARLINK-5614,1 55756U 23028R   23147.79421011  .00000024  00000-0  98101-5 0  9995,2 55756  69.9997 288.2236 0003250 268.4277  91.6510 14.98329391 13720,6950.195,96.107,574.319,569.801,0.0
55756.0,STARLINK-5614,PAYLOAD,2023-05-28 03:04:19,14.98331462,0.0003266,69.9997,287.382,268.3633,91.7152,3.3459e-05,3.06e-06,0.0,0 STARLINK-5614,1 55756U 23028R   23148.12800793  .00000306  00000-0  33459-4 0  9998,2 55756  69.9997 287.3820 0003266 268.3633  91.7152 14.98331462 13771,6950.188,96.107,574.323,569.783,0.0
55756.0,STARLINK-5614,PAYLOAD,2023-05-28 19:05:39,14.98337852,0.0003306,69.9997,285.699,268.7068,91.3713,8.2244e-05,8.89e-06,0.0,0 STARLINK-5614,1 55756U 23028R   23148.79560042  .00000889  00000-0  82244-4 0  9993,2 55756  69.9997 285.6990 0003306 268.7068  91.3713 14.98337852 13870,6950.169,96.106,574.331,569.736,0.0
55756.0,STARLINK-5614,PAYLOAD,2023-05-29 09:30:52,14.98328594,0.0003154,70.0008,284.1879,265.835,94.2449,5.4686e-05,5.6e-06,0.0,0 STARLINK-5614,1 55756U 23028R   23149.39644554  .00000560  00000-0  54686-4 0  9996,2 55756  70.0008 284.1879 0003154 265.8350  94.2449 14.98328594 13960,6950.197,96.107,574.254,569.87,0.0
55756.0,STARLINK-5614,PAYLOAD,2023-05-29 14:19:17,14.98329416,0.0003022,70.0011,283.682,260.5502,99.5316,3.246e-05,2.94e-06,0.0,0 STARLINK-5614,1 55756U 23028R   23149.59672548  .00000294  00000-0  32460-4 0  9992,2 55756  70.0011 283.6820 0003022 260.5502  99.5316 14.98329416 13997,6950.195,96.107,574.16,569.959,0.0
55756.0,STARLINK-5614,PAYLOAD,2023-05-29 19:07:41,14.98328886,0.0003081,70.0008,283.1768,260.4416,99.6395,-2.1301e-05,-3.47e-06,0.0,0 STARLINK-5614,1 55756U 23028R   23149.79700728 -.00000347  00000-0 -21301-4 0  9999,2 55756  70.0008 283.1768 0003081 260.4416  99.6395 14.98328886 14020,6950.196,96.107,574.203,569.92,0.0
